GSAT0222 (GALILEO 26)   
1 43565U 18060B   22330.58535583 -.00000075  00000+0  00000+0 0  9991
2 43565  57.2261  16.8036 0004470 270.7212  89.2936  1.70475899 27071
GSAT0219 (GALILEO 23)   
1 43566U 18060C   22328.45956678 -.00000069  00000+0  00000+0 0  9990
2 43566  57.2258  16.8632 0004035 268.9766  91.0476  1.70475933 27013
GSAT0220 (GALILEO 24)   
1 43567U 18060D   22329.26638971 -.00000071  00000+0  00000+0 0  9997
2 43567  57.2260  16.8418 0004837 267.8037  92.2103  1.70475547 27008
BEIDOU-3 M13            
1 43622U 18072A   22330.65303630  .00000031  00000+0  00000+0 0  9993
2 43622  55.5797 105.9078 0004325 277.7491  86.8168  1.86231575 28474
BEIDOU-3 M14            
1 43623U 18072B   22330.50938316  .00000031  00000+0  00000+0 0  9993
2 43623  55.5815 105.9051 0002017 324.8975  33.5947  1.86231539 28467
GPS BIII-1              
1 43873U 18109A   22331.01062064  .00000074  00000+0  00000+0 0  9993
2 43873  55.1223 143.4772 0022049 187.3341  28.3555  2.00556205 28987
METEOR-M2 2             
1 44387U 19038A   22331.12711702  .00000023  00000+0  29567-4 0  9996
2 44387  98.7461 290.7718 0001786 128.5365 231.5980 14.23732060176559
GPS BIII-2              
1 44506U 19056A   22330.59068543 -.00000074  00000+0  00000+0 0  9990
2 44506  55.7438  22.6093 0029739 184.8544 348.0988  2.00559128 24029
BEIDOU-3 M23            
1 44542U 19061A   22330.35489655  .00000040  00000+0  00000+0 0  9993
2 44542  54.5414 226.6179 0008951 351.7622   8.3071  1.86231436 21608
BEIDOU-3 M24            
1 44543U 19061B   22330.75604671  .00000036  00000+0  00000+0 0  9990
2 44543  54.5404 226.5736 0005954 340.5694 199.9666  1.86231974 21605
BEIDOU-3 M21            
1 44793U 19078A   22330.47172028 -.00000067  00000+0  10000-3 0  9990
2 44793  54.9079 345.0372 0005589 359.3323 183.3419  1.86232327 20467
BEIDOU-3 M22            
1 44794U 19078B   22330.60810851 -.00000067  00000+0  00000+0 0  9994
2 44794  54.8806 345.0202 0003796 347.9112 198.1519  1.86232839 20467
ELEKTRO-L 3             
1 44903U 19095A   22331.40952010 -.00000088  00000+0  00000+0 0  9991
2 44903   0.0529  98.0274 0001309 109.5536  82.2011  1.00270460 10689
GPS BIII-3              
1 45854U 20041A   22331.25970222 -.00000016  00000+0  00000+0 0  9999
2 45854  55.6511  79.8522 0028960 181.6983  54.0191  2.00567712 17991
GPS BIII-4              
1 46826U 20078A   22330.79383862  .00000000  00000+0  00000+0 0  9997
2 46826  54.4668 263.5060 0024427 190.8252  45.0178  2.00564896 15460
GSAT0223 (GALILEO 27)   
1 49809U 21116A   22330.28680307 -.00000074  00000+0  00000+0 0  9995
2 49809  57.2185  16.7117 0003293 216.9723 139.4159  1.70475728  6032
GSAT0224 (GALILEO 28)   
1 49810U 21116B   22329.58136891 -.00000072  00000+0  00000+0 0  9990
2 49810  57.2188  16.7290 0002669 214.7179 181.2041  1.70475798  6050
